STARLINK-31211          
1 59031U 24038J   26068.24717880 -.00000834  00000+0 -20818-4 0  9993
2 59031  42.9996  29.2471 0000681 253.7027 106.3750 15.27571669114585
FLOCK 4G-11             
1 62629U 25009W   26068.45629261  .00012672  00000+0  47740-3 0  9990
2 62629  97.3964 150.6183 0001611 333.5407  26.5750 15.27220677 63680
